{
    "links": {
        "self": "http://www.neowsapp.com/rest/v1/neo/54048844?api_key=iIulBulltgU6a56xZRHN4H3l9WmuAYTsLGpBGhQ2"
    },
    "id": "54048844",
    "neo_reference_id": "54048844",
    "name": "(2020 OB)",
    "designation": "2020 OB",
    "nasa_jpl_url": "http://ssd.jpl.nasa.gov/sbdb.cgi?sstr=54048844",
    "absolute_magnitude_h": 23.689,
    "estimated_diameter": {
        "kilometers": {
            "estimated_diameter_min": 0.0486132858,
            "estimated_diameter_max": 0.1087026117
        },
        "meters": {
            "estimated_diameter_min": 48.6132858365,
            "estimated_diameter_max": 108.70261174
        },
        "miles": {
            "estimated_diameter_min": 0.030206886,
            "estimated_diameter_max": 0.0675446506
        },
        "feet": {
            "estimated_diameter_min": 159.4924127037,
            "estimated_diameter_max": 356.635876701
        }
    },
    "is_potentially_hazardous_asteroid": false,
    "close_approach_data": [
        {
            "close_approach_date": "2020-07-20",
            "close_approach_date_full": "2020-Jul-20 02:30",
            "epoch_date_close_approach": 1595212200000,
            "relative_velocity": {
                "kilometers_per_second": "26.5255450342",
                "kilometers_per_hour": "95491.9621232629",
                "miles_per_hour": "59334.9916870908"
            },
            "miss_distance": {
                "astronomical": "0.0481140454",
                "lunar": "18.7163636606",
                "kilometers": "7197758.708923298",
                "miles": "4472479.8700775924"
            },
            "orbiting_body": "Earth"
        }
    ],
    "orbital_data": {
        "orbit_id": "3",
        "orbit_determination_date": "2020-09-13 07:22:39",
        "first_observation_date": "2020-07-16",
        "last_observation_date": "2020-07-19",
        "data_arc_in_days": 3,
        "observations_used": 17,
        "orbit_uncertainty": "9",
        "minimum_orbit_intersection": ".0117655",
        "jupiter_tisserand_invariant": "3.947",
        "epoch_osculation": "2459047.5",
        "eccentricity": ".6979934381189039",
        "semi_major_axis": "1.612390027938509",
        "inclination": "25.494457082822",
        "ascending_node_longitude": "120.8922879762396",
        "orbital_period": "747.8312033153929",
        "perihelion_distance": ".4869523687490737",
        "perihelion_argument": "283.7247761363836",
        "aphelion_distance": "2.737827687127945",
        "perihelion_time": "2459099.570289675966",
        "mean_anomaly": "334.9337762315301",
        "mean_motion": ".4813920553247794",
        "equinox": "J2000",
        "orbit_class": {
            "orbit_class_type": "APO",
            "orbit_class_description": "Near-Earth asteroid orbits which cross the Earth’s orbit similar to that of 1862 Apollo",
            "orbit_class_range": "a (semi-major axis) > 1.0 AU; q (perihelion) < 1.017 AU"
        }
    },
    "is_sentry_object": false
}